OBJECT_NAME,OBJECT_ID,EPOCH,MEAN_MOTION,ECCENTRICITY,INCLINATION,RA_OF_ASC_NODE,ARG_OF_PERICENTER,MEAN_ANOMALY,EPHEMERIS_TYPE,CLASSIFICATION_TYPE,NORAD_CAT_ID,ELEMENT_SET_NO,REV_AT_EPOCH,BSTAR,MEAN_MOTION_DOT,MEAN_MOTION_DDOT
KUIPER-00570,2026-118E,2026-06-19T19:43:11.112096,15.34625283,.001127,51.8585,40.8156,193.8876,166.1801,0,U,69271,999,438,-.46605E-4,-.1976E-4,0
KUIPER-00572,2026-118F,2026-06-19T19:13:51.362688,15.37067885,.0007096,51.8674,40.6983,180.5740,179.5240,0,U,69272,999,438,.45158E-3,.16292E-3,0
KUIPER-00581,2026-118G,2026-06-19T19:20:25.503936,15.36698392,.0008801,51.8656,40.7256,184.2805,175.8108,0,U,69273,999,447,.4337E-3,.15447E-3,0
KUIPER-00584,2026-118H,2026-06-19T19:47:12.156000,15.34339080,.0010876,51.8614,40.8375,196.9304,163.1319,0,U,69274,999,438,-.18429E-3,-.6611E-4,0
KUIPER-00587,2026-118J,2026-06-19T19:19:22.786176,15.36744180,.0008141,51.8626,40.7177,187.0144,173.0729,0,U,69275,999,438,.42722E-3,.1523E-3,0
KUIPER-00590,2026-118K,2026-06-19T18:56:28.957056,15.37977414,.0004051,51.8690,40.6216,168.6724,191.4354,0,U,69276,999,438,.4727E-3,.17586E-3,0
KUIPER-00592,2026-118L,2026-06-19T18:52:25.379904,15.38156447,.0003543,51.8713,40.6030,144.5950,215.5273,0,U,69277,999,438,.48581E-3,.18193E-3,0
KUIPER-00593,2026-118M,2026-06-19T18:53:33.493344,15.38114466,.000365,51.8718,40.6080,164.3657,195.7443,0,U,69278,999,444,.4889E-3,.18286E-3,0
KUIPER-00594,2026-118N,2026-06-19T20:13:56.146944,15.38725791,.0000853,51.8726,40.2324,84.8778,275.2307,0,U,69279,999,439,.52881E-3,.20219E-3,0
KUIPER-00595,2026-118P,2026-06-19T20:17:27.665376,15.38562028,.0001371,51.8716,40.2503,153.9933,206.1123,0,U,69280,999,442,.60889E-3,.23224E-3,0
KUIPER-00596,2026-118Q,2026-06-19T19:43:55.984800,15.34767344,.0012437,51.8561,40.8141,194.2941,165.7694,0,U,69281,999,438,.50171E-3,.16861E-3,0
KUIPER-00597,2026-118R,2026-06-19T19:11:24.326304,15.37086177,.0006996,51.8649,40.6850,180.9594,179.1381,0,U,69282,999,438,.4563E-3,.16476E-3,0
KUIPER-00599,2026-118S,2026-06-19T19:06:27.245088,15.37384230,.0005952,51.8693,40.6663,175.3184,184.7859,0,U,69283,999,438,.55614E-3,.20372E-3,0
KUIPER-00600,2026-118T,2026-06-19T19:18:19.103328,15.36724522,.0008784,51.8640,40.7144,182.1346,177.9604,0,U,69284,999,438,.45415E-3,.16209E-3,0
KUIPER-00601,2026-118U,2026-06-19T19:00:45.191808,15.37657129,.0004875,51.8706,40.6413,163.5173,196.5973,0,U,69285,999,438,.46018E-3,.1693E-3,0
KUIPER-00602,2026-118V,2026-06-19T18:50:57.688224,15.38244286,.000273,51.8707,40.5972,156.1585,203.9528,0,U,69286,999,438,.45356E-3,.17005E-3,0
KUIPER-00603,2026-118W,2026-06-19T19:02:46.266720,15.37634110,.0005286,51.8673,40.6499,170.5555,189.5532,0,U,69287,999,438,.55804E-3,.2061E-3,0
KUIPER-00605,2026-118X,2026-06-19T19:12:18.237312,15.37106107,.0007514,51.8663,40.6901,177.2883,182.8146,0,U,69288,999,438,.47225E-3,.1708E-3,0
KUIPER-00606,2026-118Y,2026-06-19T18:58:46.662240,15.37753832,.0004606,51.8698,40.6318,163.4144,196.6994,0,U,69289,999,438,.5281E-3,.19555E-3,0
KUIPER-00607,2026-118Z,2026-06-19T19:04:47.263008,15.37501206,.0005986,51.8681,40.6584,170.9584,189.1511,0,U,69290,999,438,.44312E-3,.16206E-3,0
KUIPER-00608,2026-118AA,2026-06-19T19:33:57.836736,15.35265677,.0008375,51.8610,40.7789,185.1463,174.9438,0,U,69291,999,438,.45E-3,.15307E-3,0
KUIPER-00610,2026-118AB,2026-06-19T18:47:50.753184,15.38250014,.0001927,51.8720,40.5815,153.6279,206.4807,0,U,69292,999,438,.63037E-3,.23813E-3,0
KUIPER-00613,2026-118AC,2026-06-19T19:42:14.037120,15.34370265,.0010018,51.8642,40.8201,191.8467,168.2284,0,U,69293,999,438,-.14949E-4,-.89E-5,0
KUIPER-00618,2026-118AD,2026-06-19T20:14:41.180352,15.38714264,.0001546,51.8729,40.2347,96.9615,263.1548,0,U,69294,999,439,.64481E-3,.24747E-3,0
KUIPER-00620,2026-118AE,2026-06-19T18:46:49.036800,15.38373168,.0002645,51.8723,40.5769,129.3727,230.7495,0,U,69295,999,438,.60578E-3,.2296E-3,0
STARLINK-37501,2026-119A,2026-06-19T20:00:01.999008,15.49846302,.0001837,97.2856,196.6900,59.5481,133.5541,0,U,69296,999,431,-.20227E-1,-.1025845E-1,0
STARLINK-37496,2026-119B,2026-06-19T20:00:01.999008,15.52942472,.0001522,97.2861,196.6942,75.2796,118.1500,0,U,69297,999,431,-.10581E-1,-.609512E-2,0
STARLINK-37519,2026-119C,2026-06-19T20:00:01.999008,15.49426834,.00017,97.2859,196.6948,50.5740,158.5880,0,U,69298,999,431,-.81354E-2,-.423163E-2,0
STARLINK-37455,2026-119D,2026-06-19T20:00:01.999008,15.49161083,.000152,97.2854,196.6048,89.2419,268.0441,0,U,69299,999,431,.42545E-3,.23094E-3,0
STARLINK-37456,2026-119E,2026-06-19T20:00:01.999008,15.49131538,.0001589,97.2858,196.6915,85.1353,110.2589,0,U,69300,999,431,.99474E-3,.54276E-3,0
