KUIPER-00570            
1 69271U 26118E   26170.82165639 -.00001976  00000+0 -46605-4 0  9998
2 69271  51.8585  40.8156 0011270 193.8876 166.1801 15.34625283  4383
KUIPER-00572            
1 69272U 26118F   26170.80128892  .00016292  00000+0  45158-3 0  9993
2 69272  51.8674  40.6983 0007096 180.5740 179.5240 15.37067885  4389
KUIPER-00581            
1 69273U 26118G   26170.80585074  .00015447  00000+0  43370-3 0  9998
2 69273  51.8656  40.7256 0008801 184.2805 175.8108 15.36698392  4476
KUIPER-00584            
1 69274U 26118H   26170.82444625 -.00006611  00000+0 -18429-3 0  9999
2 69274  51.8614  40.8375 0010876 196.9304 163.1319 15.34339080  4381
KUIPER-00587            
1 69275U 26118J   26170.80512484  .00015230  00000+0  42722-3 0  9995
2 69275  51.8626  40.7177 0008141 187.0144 173.0729 15.36744180  4387
KUIPER-00590            
1 69276U 26118K   26170.78922404  .00017586  00000+0  47270-3 0  9999
2 69276  51.8690  40.6216 0004051 168.6724 191.4354 15.37977414  4384
KUIPER-00592            
1 69277U 26118L   26170.78640486  .00018193  00000+0  48581-3 0  9998
2 69277  51.8713  40.6030 0003543 144.5950 215.5273 15.38156447  4388
KUIPER-00593            
1 69278U 26118M   26170.78719321  .00018286  00000+0  48890-3 0  9990
2 69278  51.8718  40.6080 0003650 164.3657 195.7443 15.38114466  4442
KUIPER-00594            
1 69279U 26118N   26170.84301096  .00020219  00000+0  52881-3 0  9998
2 69279  51.8726  40.2324 0000853  84.8778 275.2307 15.38725791  4397
KUIPER-00595            
1 69280U 26118P   26170.84545909  .00023224  00000+0  60889-3 0  9999
2 69280  51.8716  40.2503 0001371 153.9933 206.1123 15.38562028  4429
KUIPER-00596            
1 69281U 26118Q   26170.82217575  .00016861  00000+0  50171-3 0  9995
2 69281  51.8561  40.8141 0012437 194.2941 165.7694 15.34767344  4386
KUIPER-00597            
1 69282U 26118R   26170.79958711  .00016476  00000+0  45630-3 0  9992
2 69282  51.8649  40.6850 0006996 180.9594 179.1381 15.37086177  4381
KUIPER-00599            
1 69283U 26118S   26170.79614867  .00020372  00000+0  55614-3 0  9997
2 69283  51.8693  40.6663 0005952 175.3184 184.7859 15.37384230  4380
KUIPER-00600            
1 69284U 26118T   26170.80438777  .00016209  00000+0  45415-3 0  9996
2 69284  51.8640  40.7144 0008784 182.1346 177.9604 15.36724522  4383
KUIPER-00601            
1 69285U 26118U   26170.79218972  .00016930  00000+0  46018-3 0  9999
2 69285  51.8706  40.6413 0004875 163.5173 196.5973 15.37657129  4388
KUIPER-00602            
1 69286U 26118V   26170.78538991  .00017005  00000+0  45356-3 0  9993
2 69286  51.8707  40.5972 0002730 156.1585 203.9528 15.38244286  4388
KUIPER-00603            
1 69287U 26118W   26170.79359105  .00020610  00000+0  55804-3 0  9998
2 69287  51.8673  40.6499 0005286 170.5555 189.5532 15.37634110  4384
KUIPER-00605            
1 69288U 26118X   26170.80021108  .00017080  00000+0  47225-3 0  9995
2 69288  51.8663  40.6901 0007514 177.2883 182.8146 15.37106107  4383
KUIPER-00606            
1 69289U 26118Y   26170.79081785  .00019555  00000+0  52810-3 0  9996
2 69289  51.8698  40.6318 0004606 163.4144 196.6994 15.37753832  4387
KUIPER-00607            
1 69290U 26118Z   26170.79499147  .00016206  00000+0  44312-3 0  9991
2 69290  51.8681  40.6584 0005986 170.9584 189.1511 15.37501206  4387
KUIPER-00608            
1 69291U 26118AA  26170.81525274  .00015307  00000+0  45000-3 0  9992
2 69291  51.8610  40.7789 0008375 185.1463 174.9438 15.35265677  4384
KUIPER-00610            
1 69292U 26118AB  26170.78322631  .00023813  00000+0  63037-3 0  9992
2 69292  51.8720  40.5815 0001927 153.6279 206.4807 15.38250014  4389
KUIPER-00613            
1 69293U 26118AC  26170.82099580 -.00000890  00000+0 -14949-4 0  9993
2 69293  51.8642  40.8201 0010018 191.8467 168.2284 15.34370265  4380
KUIPER-00618            
1 69294U 26118AD  26170.84353218  .00024747  00000+0  64481-3 0  9997
2 69294  51.8729  40.2347 0001546  96.9615 263.1548 15.38714264  4392
KUIPER-00620            
1 69295U 26118AE  26170.78251200  .00022960  00000+0  60578-3 0  9997
2 69295  51.8723  40.5769 0002645 129.3727 230.7495 15.38373168  4388
STARLINK-37501          
1 69296U 26119A   26170.83335647 -.01025845  00000+0 -20227-1 0  9996
2 69296  97.2856 196.6900 0001837  59.5481 133.5541 15.49846302  4315
STARLINK-37496          
1 69297U 26119B   26170.83335647 -.00609512  00000+0 -10581-1 0  9997
2 69297  97.2861 196.6942 0001522  75.2796 118.1500 15.52942472  4316
STARLINK-37519          
1 69298U 26119C   26170.83335647 -.00423163  00000+0 -81354-2 0  9991
2 69298  97.2859 196.6948 0001700  50.5740 158.5880 15.49426834  4317
STARLINK-37455          
1 69299U 26119D   26170.83335647  .00023094  00000+0  42545-3 0  9999
2 69299  97.2854 196.6048 0001520  89.2419 268.0441 15.49161083  4318
STARLINK-37456          
1 69300U 26119E   26170.83335647  .00054276  00000+0  99474-3 0  9991
2 69300  97.2858 196.6915 0001589  85.1353 110.2589 15.49131538  4318
